{"type": "FeatureCollection", "features": [ {"type": "Feature", "properties": {"norad_id": 41774, "name": "SKYSAT-C3", "group": "resource", "lat": -83.05135359385426, "lon": 110.4307357330178, "alt_km": 441.3222026819667, "timestamp": "2025-12-16T10:53:45.120299+00:00", "meta": {"OBJECT_NAME": "SKYSAT-C3", "OBJECT_ID": "2016-058E", "EPOCH": "2025-12-15T19:44:03.359904", "MEAN_MOTION": 15.44509266, "ECCENTRICITY": 0.00017717, "INCLINATION": 96.9302, "RA_OF_ASC_NODE": 23.4252, "ARG_OF_PERICENTER": 107.793, "MEAN_ANOMALY": 252.3513, "EPHEMERIS_TYPE": 0, "CLASSIFICATION_TYPE": "U", "NORAD_CAT_ID": 41774, "ELEMENT_SET_NO": 999, "REV_AT_EPOCH": 51773, "BSTAR": 0.00029725495, "MEAN_MOTION_DOT": 0.00013709, "MEAN_MOTION_DDOT": 0}, "tle": {"line1": "1 41774U 16058E   25349.82226111  .00013709  00000+0  29725-3 0  9996", "line2": "2 41774  96.9302  23.4252 0001771 107.7930 252.3513 15.44509266517731"}}, "geometry": {"type": "Point", "coordinates": [110.4307357330178, -83.05135359385426]}}, {"type": "Feature", "properties": {"norad_id": 41785, "name": "ALSAT 1B", "group": "resource", "lat": -61.74436673200066, "lon": 167.34295771554415, "alt_km": 668.1845507246253, "timestamp": "2025-12-16T10:53:45.120309+00:00", "meta": {"OBJECT_NAME": "ALSAT 1B", "OBJECT_ID": "2016-059C", "EPOCH": "2025-12-16T00:00:34.126272", "MEAN_MOTION": 14.72079717, "ECCENTRICITY": 0.00107821, "INCLINATION": 97.782, "RA_OF_ASC_NODE": 1.65, "ARG_OF_PERICENTER": 94.1171, "MEAN_ANOMALY": 266.1269, "EPHEMERIS_TYPE": 0, "CLASSIFICATION_TYPE": "U", "NORAD_CAT_ID": 41785, "ELEMENT_SET_NO": 999, "REV_AT_EPOCH": 49362, "BSTAR": 9.0801803e-05, "MEAN_MOTION_DOT": 5.24e-06, "MEAN_MOTION_DDOT": 0}, "tle": {"line1": "1 41785U 16059C   25350.00039498  .00000524  00000+0  90802-4 0  9997", "line2": "2 41785  97.7820   1.6500 0010782  94.1171 266.1269 14.72079717493624"}}, "geometry": {"type": "Point", "coordinates": [167.34295771554415, -61.74436673200066]}}, {"type": "Feature", "properties": {"norad_id": 41787, "name": "PATHFINDER 1", "group": "resource", "lat": -75.49454433226397, "lon": 140.9979885821445, "alt_km": 697.8717638067328, "timestamp": "2025-12-16T10:53:45.120320+00:00", "meta": {"OBJECT_NAME": "PATHFINDER 1", "OBJECT_ID": "2016-059E", "EPOCH": "2025-12-15T22:16:11.147520", "MEAN_MOTION": 14.67326757, "ECCENTRICITY": 0.00299753, "INCLINATION": 97.8138, "RA_OF_ASC_NODE": 352.5536, "ARG_OF_PERICENTER": 71.5313, "MEAN_ANOMALY": 288.9147, "EPHEMERIS_TYPE": 0, "CLASSIFICATION_TYPE": "U", "NORAD_CAT_ID": 41787, "ELEMENT_SET_NO": 999, "REV_AT_EPOCH": 49283, "BSTAR": 0.00014553505, "MEAN_MOTION_DOT": 7.8e-06, "MEAN_MOTION_DDOT": 0}, "tle": {"line1": "1 41787U 16059E   25349.92790680  .00000780  00000+0  14554-3 0  9998", "line2": "2 41787  97.8138 352.5536 0029975  71.5313 288.9147 14.67326757492839"}}, "geometry": {"type": "Point", "coordinates": [140.9979885821445, -75.49454433226397]}}, {"type": "Feature", "properties": {"norad_id": 41790, "name": "SCATSAT 1", "group": "resource", "lat": 44.33060957840379, "lon": 39.126740545893554, "alt_km": 615.9854089671162, "timestamp": "2025-12-16T10:53:45.120330+00:00", "meta": {"OBJECT_NAME": "SCATSAT 1", "OBJECT_ID": "2016-059H", "EPOCH": "2025-12-15T18:27:20.738592", "MEAN_MOTION": 14.78946647, "ECCENTRICITY": 0.00563545, "INCLINATION": 98.1462, "RA_OF_ASC_NODE": 46.4771, "ARG_OF_PERICENTER": 118.4204, "MEAN_ANOMALY": 242.2702, "EPHEMERIS_TYPE": 0, "CLASSIFICATION_TYPE": "U", "NORAD_CAT_ID": 41790, "ELEMENT_SET_NO": 999, "REV_AT_EPOCH": 7447, "BSTAR": 0.00021276047, "MEAN_MOTION_DOT": 1.555e-05, "MEAN_MOTION_DDOT": 0}, "tle": {"line1": "1 41790U 16059H   25349.76899003  .00001555  00000+0  21276-3 0  9993", "line2": "2 41790  98.1462  46.4771 0056354 118.4204 242.2702 14.78946647 74472"}}, "geometry": {"type": "Point", "coordinates": [39.126740545893554, 44.33060957840379]}}, {"type": "Feature", "properties": {"norad_id": 41875, "name": "GOKTURK 1A", "group": "resource", "lat": -80.75637673585868, "lon": -55.61526112090868, "alt_km": 692.3900818913489, "timestamp": "2025-12-16T10:53:45.120341+00:00", "meta": {"OBJECT_NAME": "GOKTURK 1A", "OBJECT_ID": "2016-073A", "EPOCH": "2025-12-15T23:47:42.250272", "MEAN_MOTION": 14.62783919, "ECCENTRICITY": 0.0001251, "INCLINATION": 98.1429, "RA_OF_ASC_NODE": 242.3133, "ARG_OF_PERICENTER": 79.1749, "MEAN_ANOMALY": 280.9593, "EPHEMERIS_TYPE": 0, "CLASSIFICATION_TYPE": "U", "NORAD_CAT_ID": 41875, "ELEMENT_SET_NO": 999, "REV_AT_EPOCH": 48204, "BSTAR": 8.6717232e-05, "MEAN_MOTION_DOT": 3.95e-06, "MEAN_MOTION_DDOT": 0}, "tle": {"line1": "1 41875U 16073A   25349.99146123  .00000395  00000+0  86717-4 0  9999", "line2": "2 41875  98.1429 242.3133 0001251  79.1749 280.9593 14.62783919482048"}}, "geometry": {"type": "Point", "coordinates": [-55.61526112090868, -80.75637673585868]}}, {"type": "Feature", "properties": {"norad_id": 41877, "name": "RESOURCESAT-2A", "group": "resource", "lat": 45.67065382740046, "lon": -110.61362694101919, "alt_km": 816.1658099183132, "timestamp": "2025-12-16T10:53:45.120351+00:00", "meta": {"OBJECT_NAME": "RESOURCESAT-2A", "OBJECT_ID": "2016-074A", "EPOCH": "2025-12-16T00:08:04.202016", "MEAN_MOTION": 14.21600383, "ECCENTRICITY": 0.00012163, "INCLINATION": 98.7756, "RA_OF_ASC_NODE": 59.8423, "ARG_OF_PERICENTER": 239.3955, "MEAN_ANOMALY": 120.7102, "EPHEMERIS_TYPE": 0, "CLASSIFICATION_TYPE": "U", "NORAD_CAT_ID": 41877, "ELEMENT_SET_NO": 999, "REV_AT_EPOCH": 46827, "BSTAR": -2.7571369e-05, "MEAN_MOTION_DOT": -1.05e-06, "MEAN_MOTION_DDOT": 0}, "tle": {"line1": "1 41877U 16074A   25350.00560419 -.00000105  00000+0 -27571-4 0  9998", "line2": "2 41877  98.7756  59.8423 0001216 239.3955 120.7102 14.21600383468276"}}, "geometry": {"type": "Point", "coordinates": [-110.61362694101919, 45.67065382740046]}}, {"type": "Feature", "properties": {"norad_id": 41948, "name": "CARTOSAT-2D", "group": "resource", "lat": 3.5819222675655973, "lon": 47.42678970654522, "alt_km": 513.4115650323229, "timestamp": "2025-12-16T10:53:45.120362+00:00", "meta": {"OBJECT_NAME": "CARTOSAT-2D", "OBJECT_ID": "2017-008A", "EPOCH": "2025-12-15T23:48:54.575712", "MEAN_MOTION": 15.19291817, "ECCENTRICITY": 0.00049303, "INCLINATION": 97.4389, "RA_OF_ASC_NODE": 47.4407, "ARG_OF_PERICENTER": 151.8986, "MEAN_ANOMALY": 208.2516, "EPHEMERIS_TYPE": 0, "CLASSIFICATION_TYPE": "U", "NORAD_CAT_ID": 41948, "ELEMENT_SET_NO": 999, "REV_AT_EPOCH": 48976, "BSTAR": 0.00016750356, "MEAN_MOTION_DOT": 3.467e-05, "MEAN_MOTION_DDOT": 0}, "tle": {"line1": "1 41948U 17008A   25349.99229833  .00003467  00000+0  16750-3 0  9991", "line2": "2 41948  97.4389  47.4407 0004930 151.8986 208.2516 15.19291817489760"}}, "geometry": {"type": "Point", "coordinates": [47.42678970654522, 3.5819222675655973]}}, {"type": "Feature", "properties": {"norad_id": 42063, "name": "SENTINEL-2B", "group": "resource", "lat": -44.60452371445803, "lon": -125.70713353718169, "alt_km": 796.2621154385024, "timestamp": "2025-12-16T10:53:45.120373+00:00", "meta": {"OBJECT_NAME": "SENTINEL-2B", "OBJECT_ID": "2017-013A", "EPOCH": "2025-12-15T23:46:36.833376", "MEAN_MOTION": 14.30816621, "ECCENTRICITY": 0.00011587, "INCLINATION": 98.5714, "RA_OF_ASC_NODE": 62.3909, "ARG_OF_PERICENTER": 91.8927, "MEAN_ANOMALY": 268.2388, "EPHEMERIS_TYPE": 0, "CLASSIFICATION_TYPE": "U", "NORAD_CAT_ID": 42063, "ELEMENT_SET_NO": 999, "REV_AT_EPOCH": 45844, "BSTAR": -1.8164603e-05, "MEAN_MOTION_DOT": -9.1e-07, "MEAN_MOTION_DDOT": 0}, "tle": {"line1": "1 42063U 17013A   25349.99070409 -.00000091  00000+0 -18165-4 0  9994", "line2": "2 42063  98.5714  62.3909 0001158  91.8927 268.2388 14.30816621458445"}}, "geometry": {"type": "Point", "coordinates": [-125.70713353718169, -44.60452371445803]}}, {"type": "Feature", "properties": {"norad_id": 42767, "name": "CARTOSAT-2E", "group": "resource", "lat": -81.62793247420211, "lon": 110.85180321261005, "alt_km": 514.6762245986447, "timestamp": "2025-12-16T10:53:45.120383+00:00", "meta": {"OBJECT_NAME": "CARTOSAT-2E", "OBJECT_ID": "2017-036C", "EPOCH": "2025-12-15T22:37:43.868640", "MEAN_MOTION": 15.19233439, "ECCENTRICITY": 0.00020822, "INCLINATION": 97.4561, "RA_OF_ASC_NODE": 47.4878, "ARG_OF_PERICENTER": 221.1388, "MEAN_ANOMALY": 138.969, "EPHEMERIS_TYPE": 0, "CLASSIFICATION_TYPE": "U", "NORAD_CAT_ID": 42767, "ELEMENT_SET_NO": 999, "REV_AT_EPOCH": 47032, "BSTAR": 0.00020774837, "MEAN_MOTION_DOT": 4.308e-05, "MEAN_MOTION_DDOT": 0}, "tle": {"line1": "1 42767U 17036C   25349.94286885  .00004308  00000+0  20775-3 0  9994", "line2": "2 42767  97.4561  47.4878 0002082 221.1388 138.9690 15.19233439470327"}}, "geometry": {"type": "Point", "coordinates": [110.85180321261005, -81.62793247420211]}}, {"type": "Feature", "properties": {"norad_id": 42920, "name": "FORMOSAT-5", "group": "resource", "lat": 42.69128557149797, "lon": -107.61362183140079, "alt_km": 724.6182701583202, "timestamp": "2025-12-16T10:53:45.120395+00:00", "meta": {"OBJECT_NAME": "FORMOSAT-5", "OBJECT_ID": "2017-049A", "EPOCH": "2025-12-15T22:40:56.443872", "MEAN_MOTION": 14.51007308, "ECCENTRICITY": 0.00097992, "INCLINATION": 98.2451, "RA_OF_ASC_NODE": 64.2006, "ARG_OF_PERICENTER": 284.4672, "MEAN_ANOMALY": 75.5435, "EPHEMERIS_TYPE": 0, "CLASSIFICATION_TYPE": "U", "NORAD_CAT_ID": 42920, "ELEMENT_SET_NO": 999, "REV_AT_EPOCH": 44010, "BSTAR": 6.1705027e-05, "MEAN_MOTION_DOT": 2e-06, "MEAN_MOTION_DDOT": 0}, "tle": {"line1": "1 42920U 17049A   25349.94509773  .00000200  00000+0  61705-4 0  9999", "line2": "2 42920  98.2451  64.2006 0009799 284.4672  75.5435 14.51007308440100"}}, "geometry": {"type": "Point", "coordinates": [-107.61362183140079, 42.69128557149797]}}]}